STARLINK-2446           
1 47844U 21018BK  25039.79551831 -.00003451  00000+0 -21295-3 0  9993
2 47844  53.0531 219.8777 0000862  93.2501 266.8586 15.06396143216898
STARLINK-2453           
1 47845U 21018BL  25039.81397337  .00000566  00000+0  56862-4 0  9997
2 47845  53.0544 219.7974 0001167 105.5146 254.5972 15.06390512216899
SHIYAN 9 (SY-9)         
1 47851U 21019A   25039.62743815 -.00000232  00000+0  00000+0 0  9999
2 47851  17.5971 308.7905 0015255  16.2154 186.6364  1.00269176 19181
YAOGAN-31 04A           
1 47854U 21020A   25039.78271671  .00000007  00000+0  15505-3 0  9996
2 47854  63.4065  85.6438 0131085 358.5754   1.4880 13.45384679192196
YAOGAN-31 04B           
1 47856U 21020C   25039.78289800  .00000001  00000+0  14620-3 0  9992
2 47856  63.4060  86.4520 0130819 358.6488   1.4166 13.45383514192175
YAOGAN-31 04C           
1 47857U 21020D   25039.78291176 -.00000005  00000+0  13607-3 0  9991
2 47857  63.4070  85.6975 0130947 358.5603   1.5028 13.45385158192187
STARLINK-2280           
1 47861U 21021B   25039.83285487 -.00000886  00000+0 -40596-4 0  9997
2 47861  53.0551 234.7126 0001625  99.4811 260.6362 15.06388920216419
STARLINK-2291           
1 47862U 21021C   25039.81303455 -.00000557  00000+0 -18508-4 0  9995
2 47862  53.0532 229.7990 0001422  82.7510 277.3641 15.06404324216487
STARLINK-2293           
1 47863U 21021D   25039.83771736  .00033054  00000+0  22133-2 0  9992
2 47863  53.0549 239.6870 0001244  90.7449 269.3682 15.06638719216343
STARLINK-2310           
1 47865U 21021F   25039.58334491  .00600669  00000+0  26796-2 0  9990
2 47865  53.0345 209.2025 0001512 279.8973 111.6456 15.82132113  6036
STARLINK-2320           
1 47866U 21021G   25039.91668981  .00965595  41952-3  26439-2 0  9993
2 47866  53.0453 208.7137 0000772  60.4972 154.8336 15.93533228216791
STARLINK-2321           
1 47867U 21021H   25039.91668981  .00825293  30678-3  20738-2 0  9993
2 47867  53.0429 191.0224 0000979 331.7096 214.4955 15.95122941217043
STARLINK-2323           
1 47868U 21021J   25039.67020739 -.00008422  00000+0 -54744-3 0  9996
2 47868  53.0537 180.4390 0001371  89.2861 270.8285 15.06383597217176
STARLINK-2326           
1 47870U 21021L   25039.82364408 -.00000302  00000+0 -13568-5 0  9990
2 47870  53.0549 254.7542 0001542  99.0901 261.0263 15.06391041216136
STARLINK-2329           
1 47873U 21021P   25039.51818656  .00001289  00000+0  10542-3 0  9998
2 47873  53.0544 231.1252 0001621  86.9734 273.1440 15.06392812216912
STARLINK-2330           
1 47874U 21021Q   25039.66053190 -.00001618  00000+0 -89737-4 0  9990
2 47874  53.0534 185.4903 0001149  89.4965 270.6155 15.06404956217093
STARLINK-2332           
1 47876U 21021S   25039.91668981  .01027754  53426-3  19270-2 0  9995
2 47876  53.0315 200.2030 0000972  65.3916 355.6627 16.00429440216908
STARLINK-2333           
1 47877U 21021T   25039.58334491  .01008509  00000+0  42512-2 0  9993
2 47877  53.0476 214.0929 0000685  60.5742 243.2816 15.82690972  6001
STARLINK-2335           
1 47878U 21021U   25039.58334491  .00839179  00000+0  27561-2 0  9995
2 47878  53.0477 211.2456 0003812 271.5365 280.5736 15.87957938  5981
STARLINK-2336           
1 47879U 21021V   25039.85309783  .00005629  00000+0  39615-3 0  9991
2 47879  53.0535 254.6160 0001385  91.2499 268.8649 15.06430028216149
STARLINK-2337           
1 47880U 21021W   25039.91668981  .00908731  37950-3  22183-2 0  9993
2 47880  53.0398 211.0538 0000598  15.6996  38.2383 15.95671504216756
STARLINK-2340           
1 47882U 21021Y   25038.84610074  .00035553  00000+0  13965-2 0  9999
2 47882  53.0568 232.3974 0005800 161.8782 198.2423 15.25379678216375
STARLINK-2342           
1 47883U 21021Z   25039.53335642 -.00000358  00000+0 -51440-5 0  9992
2 47883  53.0530 246.0557 0001781  84.2563 275.8629 15.06400904216885
STARLINK-2343           
1 47884U 21021AA  25039.84806170  .00000045  00000+0  21949-4 0  9997
2 47884  53.0533 249.6417 0001387  93.5427 266.5721 15.06393677216212
STARLINK-2344           
1 47885U 21021AB  25039.58334491  .00730470  00000+0  36252-2 0  9994
2 47885  53.0488 226.1502 0000515  35.6518 343.6056 15.79459331  5996
STARLINK-2346           
1 47887U 21021AD  25039.86648869  .00001095  00000+0  92389-4 0  9993
2 47887  53.0529 249.5574 0001421  89.8600 270.2552 15.06400141216223
STARLINK-2348           
1 47888U 21021AE  25039.82305469  .00056501  00000+0  37594-2 0  9993
2 47888  53.0530 239.7558 0001564  84.0615 276.0552 15.06619699216358
STARLINK-2352           
1 47892U 21021AJ  25039.91668981  .00238946  00000+0  12965-2 0  9999
2 47892  53.0471 174.3825 0006685 355.9592 170.8515 15.78796201217299
STARLINK-2354           
1 47894U 21021AL  25039.53200529  .00005766  00000+0  40562-3 0  9996
2 47894  53.0525 241.0598 0001582  94.8017 265.3153 15.06401619216735
STARLINK-2355           
1 47895U 21021AM  25039.54303286 -.00005033  00000+0 -31930-3 0  9990
2 47895  53.0529 241.0101 0001341  92.2378 267.8764 15.06393965216767
