OBJECT_NAME,OBJECT_ID,EPOCH,MEAN_MOTION,ECCENTRICITY,INCLINATION,RA_OF_ASC_NODE,ARG_OF_PERICENTER,MEAN_ANOMALY,EPHEMERIS_TYPE,CLASSIFICATION_TYPE,NORAD_CAT_ID,ELEMENT_SET_NO,REV_AT_EPOCH,BSTAR,MEAN_MOTION_DOT,MEAN_MOTION_DDOT
STARLINK-2446,2021-018BK,2025-02-08T19:05:32.781984,15.06396143,.0000862,53.0531,219.8777,93.2501,266.8586,0,U,47844,999,21689,-.21295E-3,-.3451E-4,0
STARLINK-2453,2021-018BL,2025-02-08T19:32:07.299168,15.06390512,.0001167,53.0544,219.7974,105.5146,254.5972,0,U,47845,999,21689,.56862E-4,.566E-5,0
SHIYAN 9 (SY-9),2021-019A,2025-02-08T15:03:30.656160,1.00269176,.0015255,17.5971,308.7905,16.2154,186.6364,0,U,47851,999,1918,0,-.232E-5,0
YAOGAN-31 04A,2021-020A,2025-02-08T18:47:06.723744,13.45384679,.0131085,63.4065,85.6438,358.5754,1.4880,0,U,47854,999,19219,.15505E-3,.7E-7,0
YAOGAN-31 04B,2021-020C,2025-02-08T18:47:22.387200,13.45383514,.0130819,63.4060,86.4520,358.6488,1.4166,0,U,47856,999,19217,.1462E-3,.1E-7,0
YAOGAN-31 04C,2021-020D,2025-02-08T18:47:23.576064,13.45385158,.0130947,63.4070,85.6975,358.5603,1.5028,0,U,47857,999,19218,.13607E-3,-.5E-7,0
STARLINK-2280,2021-021B,2025-02-08T19:59:18.660768,15.06388920,.0001625,53.0551,234.7126,99.4811,260.6362,0,U,47861,999,21641,-.40596E-4,-.886E-5,0
STARLINK-2291,2021-021C,2025-02-08T19:30:46.185120,15.06404324,.0001422,53.0532,229.7990,82.7510,277.3641,0,U,47862,999,21648,-.18508E-4,-.557E-5,0
STARLINK-2293,2021-021D,2025-02-08T20:06:18.779904,15.06638719,.0001244,53.0549,239.6870,90.7449,269.3682,0,U,47863,999,21634,.22133E-2,.33054E-3,0
STARLINK-2310,2021-021F,2025-02-08T14:00:01.000224,15.82132113,.0001512,53.0345,209.2025,279.8973,111.6456,0,U,47865,999,603,.26796E-2,.600669E-2,0
STARLINK-2320,2021-021G,2025-02-08T22:00:01.999584,15.93533228,.0000772,53.0453,208.7137,60.4972,154.8336,0,U,47866,999,21679,.26439E-2,.965595E-2,.41952E-3
STARLINK-2321,2021-021H,2025-02-08T22:00:01.999584,15.95122941,.0000979,53.0429,191.0224,331.7096,214.4955,0,U,47867,999,21704,.20738E-2,.825293E-2,.30678E-3
STARLINK-2323,2021-021J,2025-02-08T16:05:05.918496,15.06383597,.0001371,53.0537,180.4390,89.2861,270.8285,0,U,47868,999,21717,-.54744E-3,-.8422E-4,0
STARLINK-2326,2021-021L,2025-02-08T19:46:02.848512,15.06391041,.0001542,53.0549,254.7542,99.0901,261.0263,0,U,47870,999,21613,-.13568E-5,-.302E-5,0
STARLINK-2329,2021-021P,2025-02-08T12:26:11.318784,15.06392812,.0001621,53.0544,231.1252,86.9734,273.1440,0,U,47873,999,21691,.10542E-3,.1289E-4,0
STARLINK-2330,2021-021Q,2025-02-08T15:51:09.956160,15.06404956,.0001149,53.0534,185.4903,89.4965,270.6155,0,U,47874,999,21709,-.89737E-4,-.1618E-4,0
STARLINK-2332,2021-021S,2025-02-08T22:00:01.999584,16.00429440,.0000972,53.0315,200.2030,65.3916,355.6627,0,U,47876,999,21690,.1927E-2,.1027754E-1,.53426E-3
STARLINK-2333,2021-021T,2025-02-08T14:00:01.000224,15.82690972,.0000685,53.0476,214.0929,60.5742,243.2816,0,U,47877,999,600,.42512E-2,.1008509E-1,0
STARLINK-2335,2021-021U,2025-02-08T14:00:01.000224,15.87957938,.0003812,53.0477,211.2456,271.5365,280.5736,0,U,47878,999,598,.27561E-2,.839179E-2,0
STARLINK-2336,2021-021V,2025-02-08T20:28:27.652512,15.06430028,.0001385,53.0535,254.6160,91.2499,268.8649,0,U,47879,999,21614,.39615E-3,.5629E-4,0
STARLINK-2337,2021-021W,2025-02-08T22:00:01.999584,15.95671504,.0000598,53.0398,211.0538,15.6996,38.2383,0,U,47880,999,21675,.22183E-2,.908731E-2,.3795E-3
STARLINK-2340,2021-021Y,2025-02-07T20:18:23.103936,15.25379678,.00058,53.0568,232.3974,161.8782,198.2423,0,U,47882,999,21637,.13965E-2,.35553E-3,0
STARLINK-2342,2021-021Z,2025-02-08T12:48:01.994688,15.06400904,.0001781,53.0530,246.0557,84.2563,275.8629,0,U,47883,999,21688,-.5144E-5,-.358E-5,0
STARLINK-2343,2021-021AA,2025-02-08T20:21:12.530880,15.06393677,.0001387,53.0533,249.6417,93.5427,266.5721,0,U,47884,999,21621,.21949E-4,.45E-6,0
STARLINK-2344,2021-021AB,2025-02-08T14:00:01.000224,15.79459331,.0000515,53.0488,226.1502,35.6518,343.6056,0,U,47885,999,599,.36252E-2,.73047E-2,0
STARLINK-2346,2021-021AD,2025-02-08T20:47:44.622816,15.06400141,.0001421,53.0529,249.5574,89.8600,270.2552,0,U,47887,999,21622,.92389E-4,.1095E-4,0
STARLINK-2348,2021-021AE,2025-02-08T19:45:11.925216,15.06619699,.0001564,53.0530,239.7558,84.0615,276.0552,0,U,47888,999,21635,.37594E-2,.56501E-3,0
STARLINK-2352,2021-021AJ,2025-02-08T22:00:01.999584,15.78796201,.0006685,53.0471,174.3825,355.9592,170.8515,0,U,47892,999,21729,.12965E-2,.238946E-2,0
STARLINK-2354,2021-021AL,2025-02-08T12:46:05.257056,15.06401619,.0001582,53.0525,241.0598,94.8017,265.3153,0,U,47894,999,21673,.40562E-3,.5766E-4,0
STARLINK-2355,2021-021AM,2025-02-08T13:01:58.039104,15.06393965,.0001341,53.0529,241.0101,92.2378,267.8764,0,U,47895,999,21676,-.3193E-3,-.5033E-4,0
